{
  "version": 0.6,
  "generator": "Overpass API",
  "osm3s": {
    "timestamp_osm_base": "2015-10-28T16:20:02Z",
    "copyright": "The data included in this document is from www.openstreetmap.org. The data is made available under ODbL."
  },
  "elements": [

{
  "type": "node",
  "id": 269349081,
  "lat": 48.2673961,
  "lon": 11.6686525,
  "tags": {
    "amenity": "post_box",
    "brand": "Deutsche Post",
    "collection_times": "Mo-Fr 16:30",
    "operator": "Deutsche Post",
    "ref": "Lichtenbergstr. 85748 Garching b. München"
  }
},
{
  "type": "node",
  "id": 291522832,
  "lat": 48.2671101,
  "lon": 11.6704480,
  "tags": {
    "amenity": "atm",
    "name": "Kreissparkasse",
    "operator": "Sparkasse"
  }
},
{
  "type": "node",
  "id": 291535301,
  "lat": 48.2673854,
  "lon": 11.6704791,
  "tags": {
    "amenity": "pub",
    "name": "Campus-Cneipe C2",
    "opening_hours": "Mo-Th 11:00-23:30; Fr 11:00-22:00",
    "smoking": "no",
    "website": "http://www.c2.tum.de/",
    "wheelchair": "limited"
  }
},
{
  "type": "node",
  "id": 303301101,
  "lat": 48.2657788,
  "lon": 11.6675514,
  "tags": {
    "addr:city": "Garching bei München",
    "addr:housenumber": "15",
    "addr:postcode": "85748",
    "addr:street": "Boltzmannstraße",
    "amenity": "fast_food",
    "name": "Cafeteria der Fakultät Maschinenbau",
    "opening_hours": "Mo-Th 08:00-15:15; Fr 08:00-14:30",
    "smoking": "no",
    "website": "http://www.forschung-garching.de/index.php?id=71",
    "wheelchair": "yes"
  }
},
{
  "type": "node",
  "id": 303301102,
  "lat": 48.2623714,
  "lon": 11.6680018,
  "tags": {
    "amenity": "fast_food",
    "name": "Cafeteria der FMI",
    "opening_hours": "Mo-Fr 07:00-19:00",
    "smoking": "no",
    "wheelchair": "limited"
  }
},
{
  "type": "node",
  "id": 306605558,
  "lat": 48.2647531,
  "lon": 11.6711994,
  "tags": {
    "amenity": "telephone"
  }
},
{
  "type": "node",
  "id": 365417283,
  "lat": 48.2638550,
  "lon": 11.6723302,
  "tags": {
    "amenity": "kindergarten",
    "name": "Wichtel Akademie Garching"
  }
},
{
  "type": "node",
  "id": 365417429,
  "lat": 48.2662319,
  "lon": 11.6676953,
  "tags": {
    "amenity": "kindergarten",
    "name": "Kinderkrippe Sonnenkäfer"
  }
},
{
  "type": "node",
  "id": 367278843,
  "lat": 48.2623662,
  "lon": 11.6719036,
  "tags": {
    "amenity": "bicycle_parking"
  }
},
{
  "type": "node",
  "id": 837322510,
  "lat": 48.2630256,
  "lon": 11.6732089,
  "tags": {
    "amenity": "library",
    "name": "IPP Bibliothek"
  }
},
{
  "type": "node",
  "id": 837322525,
  "lat": 48.2632113,
  "lon": 11.6716424,
  "tags": {
    "amenity": "doctors",
    "name": "B.A.D"
  }
},
{
  "type": "node",
  "id": 1240863070,
  "lat": 48.2666466,
  "lon": 11.6761262,
  "tags": {
    "addr:city": "Garching bei München",
    "addr:country": "DE",
    "addr:housenumber": "1",
    "addr:postcode": "85748",
    "addr:street": "James-Franck-Straße",
    "amenity": "library",
    "name": "TUM Universitätsbibliothek (Physik)",
    "ref:isil": "DE-91G",
    "wheelchair": "no"
  }
},
{
  "type": "node",
  "id": 1240871380,
  "lat": 48.2658610,
  "lon": 11.6707349,
  "tags": {
    "addr:city": "Garching bei München",
    "addr:country": "DE",
    "addr:housenumber": "15",
    "addr:postcode": "85748",
    "addr:street": "Boltzmannstraße",
    "amenity": "library",
    "name": "TUM Universitätsbibliothek (Maschinenwesen)",
    "ref:isil": "DE-91G",
    "wheelchair": "limited"
  }
},
{
  "type": "node",
  "id": 1240877334,
  "lat": 48.2683892,
  "lon": 11.6687662,
  "tags": {
    "addr:city": "Garching bei München",
    "addr:country": "DE",
    "addr:housenumber": "4",
    "addr:postcode": "85748",
    "addr:street": "Lichtenbergstraße",
    "amenity": "library",
    "name": "TUM Universitätsbibliothek (Chemie)",
    "ref:isil": "DE-91G",
    "wheelchair": "yes"
  }
},
{
  "type": "node",
  "id": 1839003646,
  "lat": 48.2636988,
  "lon": 11.6741349,
  "tags": {
    "amenity": "bicycle_parking",
    "capacity": "12",
    "covered": "yes"
  }
},
{
  "type": "node",
  "id": 1839003674,
  "lat": 48.2639143,
  "lon": 11.6733373,
  "tags": {
    "amenity": "bicycle_parking",
    "capacity": "12",
    "covered": "yes"
  }
},
{
  "type": "node",
  "id": 1847077333,
  "lat": 48.2636379,
  "lon": 11.6745561,
  "tags": {
    "amenity": "recycling",
    "recycling:batteries": "no",
    "recycling:books": "yes",
    "recycling:cans": "no",
    "recycling:cardboard": "yes",
    "recycling:cartons": "yes",
    "recycling:clothes": "no",
    "recycling:electrical_appliances": "no",
    "recycling:glass": "no",
    "recycling:glass_bottles": "no",
    "recycling:green_waste": "no",
    "recycling:magazines": "yes",
    "recycling:newspaper": "yes",
    "recycling:paper": "yes",
    "recycling:paper_packaging": "yes",
    "recycling:plastic": "no",
    "recycling:plastic_bottles": "no",
    "recycling:plastic_packaging": "no",
    "recycling:scrap_metal": "no",
    "recycling:small_appliances": "no",
    "recycling:waste": "yes",
    "recycling:wood": "no",
    "recycling_type": "container"
  }
},
{
  "type": "node",
  "id": 1847077341,
  "lat": 48.2633593,
  "lon": 11.6730218,
  "tags": {
    "amenity": "waste_basket"
  }
},
{
  "type": "node",
  "id": 2104013201,
  "lat": 48.2629467,
  "lon": 11.6688911,
  "tags": {
    "amenity": "bicycle_parking",
    "bicycle_parking": "stands",
    "capacity": "36",
    "covered": "no",
    "note": "18 Stahlbügel."
  }
},
{
  "type": "node",
  "id": 2104013209,
  "lat": 48.2635321,
  "lon": 11.6695680,
  "tags": {
    "amenity": "bicycle_parking",
    "bicycle_parking": "stands",
    "capacity": "22",
    "covered": "no",
    "note": "11 Stahlbügel."
  }
},
{
  "type": "node",
  "id": 2104013243,
  "lat": 48.2646911,
  "lon": 11.6709430,
  "tags": {
    "amenity": "bicycle_parking",
    "bike_ride": "yes",
    "covered": "no"
  }
},
{
  "type": "node",
  "id": 2104752044,
  "lat": 48.2628110,
  "lon": 11.6690628,
  "tags": {
    "amenity": "bench"
  }
},
{
  "type": "node",
  "id": 2104752053,
  "lat": 48.2632806,
  "lon": 11.6695295,
  "tags": {
    "amenity": "bench"
  }
},
{
  "type": "node",
  "id": 2104752085,
  "lat": 48.2629431,
  "lon": 11.6695536,
  "tags": {
    "amenity": "bench"
  }
},
{
  "type": "node",
  "id": 2104752105,
  "lat": 48.2631717,
  "lon": 11.6695053,
  "tags": {
    "amenity": "bench"
  }
},
{
  "type": "node",
  "id": 2104752106,
  "lat": 48.2628645,
  "lon": 11.6693256,
  "tags": {
    "amenity": "bench"
  }
},
{
  "type": "node",
  "id": 2104752155,
  "lat": 48.2628716,
  "lon": 11.6690413,
  "tags": {
    "amenity": "bench"
  }
},
{
  "type": "node",
  "id": 2104752165,
  "lat": 48.2629448,
  "lon": 11.6690226,
  "tags": {
    "amenity": "bench"
  }
},
{
  "type": "node",
  "id": 2104752166,
  "lat": 48.2628521,
  "lon": 11.6689206,
  "tags": {
    "amenity": "bench"
  }
},
{
  "type": "node",
  "id": 2105456534,
  "lat": 48.2638787,
  "lon": 11.6705434,
  "tags": {
    "amenity": "bicycle_parking",
    "bicycle_parking": "stands",
    "bike_ride": "yes",
    "covered": "no"
  }
},
{
  "type": "node",
  "id": 2117132105,
  "lat": 48.2657124,
  "lon": 11.6670917,
  "tags": {
    "amenity": "fountain"
  }
},
{
  "type": "node",
  "id": 2151551618,
  "lat": 48.2639396,
  "lon": 11.6711602,
  "tags": {
    "amenity": "bicycle_parking",
    "bike_ride": "yes",
    "covered": "yes"
  }
},
{
  "type": "node",
  "id": 2161764664,
  "lat": 48.2671981,
  "lon": 11.6707713,
  "tags": {
    "amenity": "bench",
    "layer": "2"
  }
},
{
  "type": "node",
  "id": 2161764685,
  "lat": 48.2671498,
  "lon": 11.6711522,
  "tags": {
    "amenity": "bench",
    "layer": "2"
  }
},
{
  "type": "node",
  "id": 2161764701,
  "lat": 48.2675801,
  "lon": 11.6713319,
  "tags": {
    "amenity": "cafe",
    "name": "Segafredo Cafe-Bar"
  }
},
{
  "type": "node",
  "id": 2161764705,
  "lat": 48.2672622,
  "lon": 11.6715787,
  "tags": {
    "amenity": "bench",
    "layer": "2"
  }
},
{
  "type": "node",
  "id": 2161764708,
  "lat": 48.2672052,
  "lon": 11.6714607,
  "tags": {
    "amenity": "bench",
    "layer": "2"
  }
},
{
  "type": "node",
  "id": 2161764713,
  "lat": 48.2670656,
  "lon": 11.6715329,
  "tags": {
    "amenity": "bicycle_parking",
    "bicycle_parking": "stands",
    "comment": "Ladestation?",
    "covered": "yes",
    "layer": "2"
  }
},
{
  "type": "node",
  "id": 2161764726,
  "lat": 48.2672141,
  "lon": 11.6713453,
  "tags": {
    "amenity": "bench",
    "layer": "2"
  }
},
{
  "type": "node",
  "id": 2161764749,
  "lat": 48.2672570,
  "lon": 11.6711737,
  "tags": {
    "addr:city": "Garching bei München",
    "addr:country": "DE",
    "addr:housenumber": "2",
    "addr:postcode": "85748",
    "addr:street": "Lichtenbergstraße",
    "amenity": "restaurant",
    "name": "Cafeteria Mensa Garching",
    "opening_hours": "Mo-Th 08:30-15:45; Fr 08:30-14:15",
    "website": "http://www.studentenwerk-muenchen.de/mensa/unsere-mensen-und-stucafes/garching/"
  }
},
{
  "type": "node",
  "id": 2161764756,
  "lat": 48.2669896,
  "lon": 11.6718682,
  "tags": {
    "amenity": "cafe",
    "name": "Crazy Bean",
    "opening_hours": "Mo-Fr 09:30-15:30",
    "website": "http://www.crazy-bean.de/"
  }
},
{
  "type": "node",
  "id": 2161764795,
  "lat": 48.2671730,
  "lon": 11.6709591,
  "tags": {
    "amenity": "bench",
    "layer": "2"
  }
},
{
  "type": "node",
  "id": 2161764809,
  "lat": 48.2674462,
  "lon": 11.6719032,
  "tags": {
    "amenity": "bench",
    "layer": "2"
  }
},
{
  "type": "node",
  "id": 2161764818,
  "lat": 48.2674498,
  "lon": 11.6718388,
  "tags": {
    "amenity": "bench",
    "layer": "2"
  }
},
{
  "type": "node",
  "id": 2376920556,
  "lat": 48.2639160,
  "lon": 11.6706901,
  "tags": {
    "amenity": "bench",
    "shelter": "yes"
  }
},
{
  "type": "node",
  "id": 2376920738,
  "lat": 48.2639323,
  "lon": 11.6706133,
  "tags": {
    "amenity": "bench",
    "shelter": "yes"
  }
},
{
  "type": "node",
  "id": 2376920741,
  "lat": 48.2640072,
  "lon": 11.6707190,
  "tags": {
    "amenity": "bench",
    "shelter": "yes"
  }
},
{
  "type": "node",
  "id": 2376920744,
  "lat": 48.2640147,
  "lon": 11.6706425,
  "tags": {
    "amenity": "bench",
    "shelter": "yes"
  }
},
{
  "type": "node",
  "id": 2376920747,
  "lat": 48.2640297,
  "lon": 11.6705660,
  "tags": {
    "amenity": "bench",
    "shelter": "yes"
  }
},
{
  "type": "node",
  "id": 2694344280,
  "lat": 48.2659543,
  "lon": 11.6691587,
  "tags": {
    "addr:city": "Garching bei München",
    "addr:housenumber": "15",
    "addr:postcode": "85748",
    "addr:street": "Boltzmannstraße",
    "amenity": "university",
    "name": "Lehrstuhl für Anlagen-  und Prozesstechnik",
    "phone": "+49 (0)89  289-16501",
    "website": "http://www.apt.mw.tum.de/"
  }
},
{
  "type": "node",
  "id": 2825704013,
  "lat": 48.2655664,
  "lon": 11.6698583,
  "tags": {
    "addr:city": "Garching bei München",
    "addr:housenumber": "15",
    "addr:postcode": "85748",
    "addr:street": "Boltzmannstraße",
    "amenity": "university",
    "name": "TUfast e.V.",
    "website": "http://www.tufast.de"
  }
},
{
  "type": "node",
  "id": 2913298819,
  "lat": 48.2637738,
  "lon": 11.6679334,
  "tags": {
    "amenity": "bench"
  }
},
{
  "type": "node",
  "id": 2913298822,
  "lat": 48.2637721,
  "lon": 11.6679897,
  "tags": {
    "amenity": "bench"
  }
},
{
  "type": "node",
  "id": 3206865078,
  "lat": 48.2655645,
  "lon": 11.6695746,
  "tags": {
    "addr:city": "Garching bei München",
    "addr:country": "DE",
    "addr:housenumber": "15",
    "addr:street": "Boltzmannstraße",
    "amenity": "cafe",
    "name": "Chicco di Caffe",
    "opening_hours": "Mo-Fr 07:00-19:00",
    "website": "http://www.chicco-di-caffe.de/"
  }
},
{
  "type": "node",
  "id": 3661154938,
  "lat": 48.2654375,
  "lon": 11.6708108,
  "tags": {
    "amenity": "university",
    "indoor": "yes",
    "level": "0",
    "name": "Gustav-Niemann-Hörsaal",
    "ref": "5510.EG.001",
    "room": "lecture"
  }
},
{
  "type": "node",
  "id": 3662078139,
  "lat": 48.2633642,
  "lon": 11.6691194,
  "tags": {
    "amenity": "university",
    "indoor": "yes",
    "level": "0",
    "name": "Interims Hörsaal 1",
    "room": "lecture"
  }
},
{
  "type": "node",
  "id": 3662081129,
  "lat": 48.2634726,
  "lon": 11.6691469,
  "tags": {
    "amenity": "university",
    "indoor": "yes",
    "level": "0",
    "name": "Interims Hörsaal 2",
    "room": "lecture"
  }
}

  ]
}
